{"type": "FeatureCollection", "features": [ {"type": "Feature", "properties": {"norad_id": 30771, "name": "FENGYUN 1C DEB", "group": "fengyun-1c-debris", "lat": -29.53538873359043, "lon": 142.00507407281756, "alt_km": 749.6508366969892, "timestamp": "2025-12-17T15:50:10.058543+00:00", "meta": {"OBJECT_NAME": "FENGYUN 1C DEB", "OBJECT_ID": "1999-025AUH", "EPOCH": "2025-12-16T22:13:33.189312", "MEAN_MOTION": 14.43241776, "ECCENTRICITY": 0.0022734, "INCLINATION": 98.905, "RA_OF_ASC_NODE": 326.335, "ARG_OF_PERICENTER": 287.8281, "MEAN_ANOMALY": 72.0428, "EPHEMERIS_TYPE": 0, "CLASSIFICATION_TYPE": "U", "NORAD_CAT_ID": 30771, "ELEMENT_SET_NO": 999, "REV_AT_EPOCH": 97124, "BSTAR": 0.0019892669, "MEAN_MOTION_DOT": 6.673e-05, "MEAN_MOTION_DDOT": 0}, "tle": {"line1": "1 30771U 99025AUH 25350.92607858  .00006673  00000+0  19893-2 0  9996", "line2": "2 30771  98.9050 326.3350 0022734 287.8281  72.0428 14.43241776971242"}}, "geometry": {"type": "Point", "coordinates": [142.00507407281756, -29.53538873359043]}}, {"type": "Feature", "properties": {"norad_id": 30802, "name": "FENGYUN 1C DEB", "group": "fengyun-1c-debris", "lat": 31.153923196999084, "lon": -96.0581922706908, "alt_km": 788.211387691752, "timestamp": "2025-12-17T15:50:10.058554+00:00", "meta": {"OBJECT_NAME": "FENGYUN 1C DEB", "OBJECT_ID": "1999-025AUL", "EPOCH": "2025-12-17T05:20:31.369920", "MEAN_MOTION": 14.32492535, "ECCENTRICITY": 0.00177849, "INCLINATION": 98.8379, "RA_OF_ASC_NODE": 78.0993, "ARG_OF_PERICENTER": 28.4562, "MEAN_ANOMALY": 26.0769, "EPHEMERIS_TYPE": 0, "CLASSIFICATION_TYPE": "U", "NORAD_CAT_ID": 30802, "ELEMENT_SET_NO": 999, "REV_AT_EPOCH": 97267, "BSTAR": 0.0012811706, "MEAN_MOTION_DOT": 3.433e-05, "MEAN_MOTION_DDOT": 0}, "tle": {"line1": "1 30802U 99025AUL 25351.22258530  .00003433  00000+0  12812-2 0  9999", "line2": "2 30802  98.8379  78.0993 0017784  28.4562  26.0769 14.32492535972678"}}, "geometry": {"type": "Point", "coordinates": [-96.0581922706908, 31.153923196999084]}}, {"type": "Feature", "properties": {"norad_id": 30803, "name": "FENGYUN 1C DEB", "group": "fengyun-1c-debris", "lat": 79.05612067213265, "lon": -97.6186454663506, "alt_km": 849.4480999697271, "timestamp": "2025-12-17T15:50:10.058564+00:00", "meta": {"OBJECT_NAME": "FENGYUN 1C DEB", "OBJECT_ID": "1999-025AUM", "EPOCH": "2025-12-17T05:28:42.794976", "MEAN_MOTION": 14.11268356, "ECCENTRICITY": 0.01075646, "INCLINATION": 99.246, "RA_OF_ASC_NODE": 24.5417, "ARG_OF_PERICENTER": 189.0138, "MEAN_ANOMALY": 236.6862, "EPHEMERIS_TYPE": 0, "CLASSIFICATION_TYPE": "U", "NORAD_CAT_ID": 30803, "ELEMENT_SET_NO": 999, "REV_AT_EPOCH": 96062, "BSTAR": 0.0009185938, "MEAN_MOTION_DOT": 1.705e-05, "MEAN_MOTION_DDOT": 0}, "tle": {"line1": "1 30803U 99025AUM 25351.22827309  .00001705  00000+0  91859-3 0  9995", "line2": "2 30803  99.2460  24.5417 0107564 189.0138 236.6862 14.11268356960625"}}, "geometry": {"type": "Point", "coordinates": [-97.6186454663506, 79.05612067213265]}}, {"type": "Feature", "properties": {"norad_id": 30804, "name": "FENGYUN 1C DEB", "group": "fengyun-1c-debris", "lat": 7.473131258055861, "lon": -121.41485471142082, "alt_km": 581.021412682976, "timestamp": "2025-12-17T15:50:10.058574+00:00", "meta": {"OBJECT_NAME": "FENGYUN 1C DEB", "OBJECT_ID": "1999-025AUN", "EPOCH": "2025-12-17T03:37:47.613792", "MEAN_MOTION": 14.54631513, "ECCENTRICITY": 0.01857227, "INCLINATION": 98.8954, "RA_OF_ASC_NODE": 56.867, "ARG_OF_PERICENTER": 177.1733, "MEAN_ANOMALY": 213.4694, "EPHEMERIS_TYPE": 0, "CLASSIFICATION_TYPE": "U", "NORAD_CAT_ID": 30804, "ELEMENT_SET_NO": 999, "REV_AT_EPOCH": 99541, "BSTAR": 0.00037754347, "MEAN_MOTION_DOT": 1.97e-05, "MEAN_MOTION_DDOT": 0}, "tle": {"line1": "1 30804U 99025AUN 25351.15124553  .00001970  00000+0  37754-3 0  9997", "line2": "2 30804  98.8954  56.8670 0185722 177.1733 213.4694 14.54631513995416"}}, "geometry": {"type": "Point", "coordinates": [-121.41485471142082, 7.473131258055861]}}, {"type": "Feature", "properties": {"norad_id": 30805, "name": "FENGYUN 1C DEB", "group": "fengyun-1c-debris", "lat": 52.883589782795895, "lon": -133.99454821877785, "alt_km": 919.8236416849668, "timestamp": "2025-12-17T15:50:10.058584+00:00", "meta": {"OBJECT_NAME": "FENGYUN 1C DEB", "OBJECT_ID": "1999-025AUP", "EPOCH": "2025-12-17T01:40:46.296192", "MEAN_MOTION": 14.02906205, "ECCENTRICITY": 0.0070123, "INCLINATION": 98.8201, "RA_OF_ASC_NODE": 33.5943, "ARG_OF_PERICENTER": 271.7868, "MEAN_ANOMALY": 117.4113, "EPHEMERIS_TYPE": 0, "CLASSIFICATION_TYPE": "U", "NORAD_CAT_ID": 30805, "ELEMENT_SET_NO": 999, "REV_AT_EPOCH": 96021, "BSTAR": 0.00081015514, "MEAN_MOTION_DOT": 1.24e-05, "MEAN_MOTION_DDOT": 0}, "tle": {"line1": "1 30805U 99025AUP 25351.06998028  .00001240  00000+0  81016-3 0  9994", "line2": "2 30805  98.8201  33.5943 0070123 271.7868 117.4113 14.02906205960210"}}, "geometry": {"type": "Point", "coordinates": [-133.99454821877785, 52.883589782795895]}}, {"type": "Feature", "properties": {"norad_id": 30806, "name": "FENGYUN 1C DEB", "group": "fengyun-1c-debris", "lat": -70.66397946814652, "lon": 44.8700239397883, "alt_km": 1199.8686482639005, "timestamp": "2025-12-17T15:50:10.058595+00:00", "meta": {"OBJECT_NAME": "FENGYUN 1C DEB", "OBJECT_ID": "1999-025AUQ", "EPOCH": "2025-12-17T07:31:36.290208", "MEAN_MOTION": 13.70425625, "ECCENTRICITY": 0.02682705, "INCLINATION": 99.0358, "RA_OF_ASC_NODE": 17.578, "ARG_OF_PERICENTER": 118.3733, "MEAN_ANOMALY": 261.0703, "EPHEMERIS_TYPE": 0, "CLASSIFICATION_TYPE": "U", "NORAD_CAT_ID": 30806, "ELEMENT_SET_NO": 999, "REV_AT_EPOCH": 93758, "BSTAR": 0.00068159816, "MEAN_MOTION_DOT": 7.39e-06, "MEAN_MOTION_DDOT": 0}, "tle": {"line1": "1 30806U 99025AUQ 25351.31361447  .00000739  00000+0  68160-3 0  9999", "line2": "2 30806  99.0358  17.5780 0268270 118.3733 261.0703 13.70425625937588"}}, "geometry": {"type": "Point", "coordinates": [44.8700239397883, -70.66397946814652]}}, {"type": "Feature", "properties": {"norad_id": 30809, "name": "FENGYUN 1C DEB", "group": "fengyun-1c-debris", "lat": 56.06571907856924, "lon": 67.44848436927398, "alt_km": 795.4793351031576, "timestamp": "2025-12-17T15:50:10.058605+00:00", "meta": {"OBJECT_NAME": "FENGYUN 1C DEB", "OBJECT_ID": "1999-025AUT", "EPOCH": "2025-12-15T04:45:46.825632", "MEAN_MOTION": 14.29254485, "ECCENTRICITY": 0.00523988, "INCLINATION": 98.7893, "RA_OF_ASC_NODE": 78.2608, "ARG_OF_PERICENTER": 164.8907, "MEAN_ANOMALY": 195.3854, "EPHEMERIS_TYPE": 0, "CLASSIFICATION_TYPE": "U", "NORAD_CAT_ID": 30809, "ELEMENT_SET_NO": 999, "REV_AT_EPOCH": 97122, "BSTAR": 0.001226895, "MEAN_MOTION_DOT": 3.122e-05, "MEAN_MOTION_DDOT": 0}, "tle": {"line1": "1 30809U 99025AUT 25349.19845863  .00003122  00000+0  12269-2 0  9991", "line2": "2 30809  98.7893  78.2608 0052398 164.8907 195.3854 14.29254485971229"}}, "geometry": {"type": "Point", "coordinates": [67.44848436927398, 56.06571907856924]}}, {"type": "Feature", "properties": {"norad_id": 30810, "name": "FENGYUN 1C DEB", "group": "fengyun-1c-debris", "lat": 0.24162005558429614, "lon": 163.3410591913757, "alt_km": 782.3671706040814, "timestamp": "2025-12-17T15:50:10.058615+00:00", "meta": {"OBJECT_NAME": "FENGYUN 1C DEB", "OBJECT_ID": "1999-025AUU", "EPOCH": "2025-12-17T00:26:38.812128", "MEAN_MOTION": 14.04185843, "ECCENTRICITY": 0.01798351, "INCLINATION": 98.6621, "RA_OF_ASC_NODE": 162.766, "ARG_OF_PERICENTER": 42.9565, "MEAN_ANOMALY": 318.5487, "EPHEMERIS_TYPE": 0, "CLASSIFICATION_TYPE": "U", "NORAD_CAT_ID": 30810, "ELEMENT_SET_NO": 999, "REV_AT_EPOCH": 94443, "BSTAR": 0.0021819659, "MEAN_MOTION_DOT": 3.958e-05, "MEAN_MOTION_DDOT": 0}, "tle": {"line1": "1 30810U 99025AUU 25351.01850477  .00003958  00000+0  21820-2 0  9994", "line2": "2 30810  98.6621 162.7660 0179835  42.9565 318.5487 14.04185843944436"}}, "geometry": {"type": "Point", "coordinates": [163.3410591913757, 0.24162005558429614]}}, {"type": "Feature", "properties": {"norad_id": 30811, "name": "FENGYUN 1C DEB", "group": "fengyun-1c-debris", "lat": -73.80463110564469, "lon": 178.37799763861287, "alt_km": 1184.399041535502, "timestamp": "2025-12-17T15:50:10.058626+00:00", "meta": {"OBJECT_NAME": "FENGYUN 1C DEB", "OBJECT_ID": "1999-025AUV", "EPOCH": "2025-12-16T01:33:06.385536", "MEAN_MOTION": 13.61853097, "ECCENTRICITY": 0.02782408, "INCLINATION": 98.7822, "RA_OF_ASC_NODE": 29.097, "ARG_OF_PERICENTER": 37.529, "MEAN_ANOMALY": 324.4924, "EPHEMERIS_TYPE": 0, "CLASSIFICATION_TYPE": "U", "NORAD_CAT_ID": 30811, "ELEMENT_SET_NO": 999, "REV_AT_EPOCH": 92912, "BSTAR": 0.001393026, "MEAN_MOTION_DOT": 1.35e-05, "MEAN_MOTION_DDOT": 0}, "tle": {"line1": "1 30811U 99025AUV 25350.06465724  .00001350  00000+0  13930-2 0  9993", "line2": "2 30811  98.7822  29.0970 0278240  37.5290 324.4924 13.61853097929121"}}, "geometry": {"type": "Point", "coordinates": [178.37799763861287, -73.80463110564469]}}, {"type": "Feature", "properties": {"norad_id": 30814, "name": "FENGYUN 1C DEB", "group": "fengyun-1c-debris", "lat": -73.75599970074218, "lon": 115.23104095842298, "alt_km": 682.0015331134946, "timestamp": "2025-12-17T15:50:10.058636+00:00", "meta": {"OBJECT_NAME": "FENGYUN 1C DEB", "OBJECT_ID": "1999-025AUY", "EPOCH": "2025-12-16T22:31:08.531616", "MEAN_MOTION": 14.6054187, "ECCENTRICITY": 0.00304097, "INCLINATION": 99.0815, "RA_OF_ASC_NODE": 327.7373, "ARG_OF_PERICENTER": 219.296, "MEAN_ANOMALY": 205.2568, "EPHEMERIS_TYPE": 0, "CLASSIFICATION_TYPE": "U", "NORAD_CAT_ID": 30814, "ELEMENT_SET_NO": 999, "REV_AT_EPOCH": 97803, "BSTAR": 0.0020460613, "MEAN_MOTION_DOT": 9.956e-05, "MEAN_MOTION_DDOT": 0}, "tle": {"line1": "1 30814U 99025AUY 25350.93829319  .00009956  00000+0  20461-2 0  9993", "line2": "2 30814  99.0815 327.7373 0030409 219.2960 205.2568 14.60541870978038"}}, "geometry": {"type": "Point", "coordinates": [115.23104095842298, -73.75599970074218]}}]}